STARLINK-3611           
1 51779U 22017M   26069.05606019  .00001298  00000+0  99602-4 0  9990
2 51779  53.2186 337.5257 0001384  97.9332 262.1817 15.08840597222625
STARLINK-3617           
1 51780U 22017N   26069.43781071  .00000868  00000+0  72602-4 0  9999
2 51780  53.2189 335.7554 0001336  89.9219 270.1926 15.08833041222538
STARLINK-3580           
1 51781U 22017P   26069.44148767  .00000728  00000+0  63836-4 0  9994
2 51781  53.2192 335.7101 0001054  90.8516 269.2596 15.08832976222537
STARLINK-3616           
1 51782U 22017Q   26069.21243510 -.00001207  00000+0 -57759-4 0  9994
2 51782  53.2205 346.9265 0001459  84.7745 275.3413 15.08831934222262
STARLINK-3628           
1 51783U 22017R   26069.44613297 -.00000517  00000+0 -14390-4 0  9990
2 51783  53.2204 335.7760 0001434  96.7187 263.3968 15.08842031222536
STARLINK-3632           
1 51784U 22017S   26069.06152876 -.00000734  00000+0 -28001-4 0  9995
2 51784  53.2193 347.4530 0001284  92.9957 267.1183 15.08841344222330
STARLINK-3646           
1 51785U 22017T   26069.43508162 -.00000047  00000+0  15155-4 0  9992
2 51785  53.2195 335.7452 0001240  85.1007 275.0127 15.08842242222534
STARLINK-3638           
1 51786U 22017U   26069.05417201 -.00001141  00000+0 -53624-4 0  9994
2 51786  53.2192 347.4841 0001287  94.9742 265.1397 15.08834094222332
STARLINK-3619           
1 51787U 22017V   26069.13513234 -.00000241  00000+0  29196-5 0  9994
2 51787  53.2193 347.1217 0001205  85.8588 274.2542 15.08833644222349
STARLINK-3641           
1 51788U 22017W   26069.17562076  .00001639  00000+0  12110-3 0  9994
2 51788  53.2204 346.9375 0001906  78.1964 281.9242 15.08823190223995
STARLINK-3639           
1 51789U 22017X   26069.45526550  .00001701  00000+0  12486-3 0  9999
2 51789  53.2191 345.6841 0001340 103.2986 256.8155 15.08855272222394
STARLINK-3631           
1 51790U 22017Y   26069.17193192  .00008082  00000+0  52581-3 0  9991
2 51790  53.2207 346.9515 0001634 101.6139 258.5037 15.08804793224048
STARLINK-3602           
1 51791U 22017Z   26069.18296002 -.00006221  00000+0 -37305-3 0  9999
2 51791  53.2186 346.9052 0001453 106.9779 253.1372 15.08845753223995
STARLINK-3626           
1 51792U 22017AA  26069.03209253 -.00000967  00000+0 -42645-4 0  9991
2 51792  53.2211 347.5839 0001649  66.5610 293.5555 15.08840173224024
STARLINK-3633           
1 51793U 22017AB  26069.50002314  .00531484  00000+0  12142-1 0  9990
2 51793  53.2187 339.8344 0001358  52.4586 289.1056 15.40245301  5814
STARLINK-3573           
1 51794U 22017AC  26069.09096844  .00000050  00000+0  21247-4 0  9995
2 51794  53.2194 347.3258 0001216  86.6384 273.4747 15.08843881223983
