[{"OBJECT_NAME":"STARLINK-3611","OBJECT_ID":"2022-017M","EPOCH":"2026-03-10T01:20:43.600416","MEAN_MOTION":15.08840597,"ECCENTRICITY":0.0001384,"INCLINATION":53.2186,"RA_OF_ASC_NODE":337.5257,"ARG_OF_PERICENTER":97.9332,"MEAN_ANOMALY":262.1817,"EPHEMERIS_TYPE":0,"CLASSIFICATION_TYPE":"U","NORAD_CAT_ID":51779,"ELEMENT_SET_NO":999,"REV_AT_EPOCH":22262,"BSTAR":9.9602104e-5,"MEAN_MOTION_DOT":1.298e-5,"MEAN_MOTION_DDOT":0},{"OBJECT_NAME":"STARLINK-3617","OBJECT_ID":"2022-017N","EPOCH":"2026-03-10T10:30:26.845344","MEAN_MOTION":15.08833041,"ECCENTRICITY":0.0001336,"INCLINATION":53.2189,"RA_OF_ASC_NODE":335.7554,"ARG_OF_PERICENTER":89.9219,"MEAN_ANOMALY":270.1926,"EPHEMERIS_TYPE":0,"CLASSIFICATION_TYPE":"U","NORAD_CAT_ID":51780,"ELEMENT_SET_NO":999,"REV_AT_EPOCH":22253,"BSTAR":7.2602e-5,"MEAN_MOTION_DOT":8.68e-6,"MEAN_MOTION_DDOT":0},{"OBJECT_NAME":"STARLINK-3580","OBJECT_ID":"2022-017P","EPOCH":"2026-03-10T10:35:44.534688","MEAN_MOTION":15.08832976,"ECCENTRICITY":0.0001054,"INCLINATION":53.2192,"RA_OF_ASC_NODE":335.7101,"ARG_OF_PERICENTER":90.8516,"MEAN_ANOMALY":269.2596,"EPHEMERIS_TYPE":0,"CLASSIFICATION_TYPE":"U","NORAD_CAT_ID":51781,"ELEMENT_SET_NO":999,"REV_AT_EPOCH":22253,"BSTAR":6.3836e-5,"MEAN_MOTION_DOT":7.28e-6,"MEAN_MOTION_DDOT":0},{"OBJECT_NAME":"STARLINK-3616","OBJECT_ID":"2022-017Q","EPOCH":"2026-03-10T05:05:54.392640","MEAN_MOTION":15.08831934,"ECCENTRICITY":0.0001459,"INCLINATION":53.2205,"RA_OF_ASC_NODE":346.9265,"ARG_OF_PERICENTER":84.7745,"MEAN_ANOMALY":275.3413,"EPHEMERIS_TYPE":0,"CLASSIFICATION_TYPE":"U","NORAD_CAT_ID":51782,"ELEMENT_SET_NO":999,"REV_AT_EPOCH":22226,"BSTAR":-5.7759e-5,"MEAN_MOTION_DOT":-1.207e-5,"MEAN_MOTION_DDOT":0},{"OBJECT_NAME":"STARLINK-3628","OBJECT_ID":"2022-017R","EPOCH":"2026-03-10T10:42:25.888608","MEAN_MOTION":15.08842031,"ECCENTRICITY":0.0001434,"INCLINATION":53.2204,"RA_OF_ASC_NODE":335.776,"ARG_OF_PERICENTER":96.7187,"MEAN_ANOMALY":263.3968,"EPHEMERIS_TYPE":0,"CLASSIFICATION_TYPE":"U","NORAD_CAT_ID":51783,"ELEMENT_SET_NO":999,"REV_AT_EPOCH":22253,"BSTAR":-1.439e-5,"MEAN_MOTION_DOT":-5.17e-6,"MEAN_MOTION_DDOT":0},{"OBJECT_NAME":"STARLINK-3632","OBJECT_ID":"2022-017S","EPOCH":"2026-03-10T01:28:36.084864","MEAN_MOTION":15.08841344,"ECCENTRICITY":0.00012847,"INCLINATION":53.2193,"RA_OF_ASC_NODE":347.453,"ARG_OF_PERICENTER":92.9957,"MEAN_ANOMALY":267.1183,"EPHEMERIS_TYPE":0,"CLASSIFICATION_TYPE":"U","NORAD_CAT_ID":51784,"ELEMENT_SET_NO":999,"REV_AT_EPOCH":22233,"BSTAR":-2.8001373e-5,"MEAN_MOTION_DOT":-7.34e-6,"MEAN_MOTION_DDOT":0},{"OBJECT_NAME":"STARLINK-3646","OBJECT_ID":"2022-017T","EPOCH":"2026-03-10T10:26:31.051968","MEAN_MOTION":15.08842242,"ECCENTRICITY":0.000124,"INCLINATION":53.2195,"RA_OF_ASC_NODE":335.7452,"ARG_OF_PERICENTER":85.1007,"MEAN_ANOMALY":275.0127,"EPHEMERIS_TYPE":0,"CLASSIFICATION_TYPE":"U","NORAD_CAT_ID":51785,"ELEMENT_SET_NO":999,"REV_AT_EPOCH":22253,"BSTAR":1.5155e-5,"MEAN_MOTION_DOT":-4.7e-7,"MEAN_MOTION_DDOT":0},{"OBJECT_NAME":"STARLINK-3638","OBJECT_ID":"2022-017U","EPOCH":"2026-03-10T01:18:00.461664","MEAN_MOTION":15.08834094,"ECCENTRICITY":0.00012875,"INCLINATION":53.2192,"RA_OF_ASC_NODE":347.4841,"ARG_OF_PERICENTER":94.9742,"MEAN_ANOMALY":265.1397,"EPHEMERIS_TYPE":0,"CLASSIFICATION_TYPE":"U","NORAD_CAT_ID":51786,"ELEMENT_SET_NO":999,"REV_AT_EPOCH":22233,"BSTAR":-5.3624147e-5,"MEAN_MOTION_DOT":-1.141e-5,"MEAN_MOTION_DDOT":0},{"OBJECT_NAME":"STARLINK-3619","OBJECT_ID":"2022-017V","EPOCH":"2026-03-10T03:14:35.434176","MEAN_MOTION":15.08833644,"ECCENTRICITY":0.00012056,"INCLINATION":53.2193,"RA_OF_ASC_NODE":347.1217,"ARG_OF_PERICENTER":85.8588,"MEAN_ANOMALY":274.2542,"EPHEMERIS_TYPE":0,"CLASSIFICATION_TYPE":"U","NORAD_CAT_ID":51787,"ELEMENT_SET_NO":999,"REV_AT_EPOCH":22234,"BSTAR":2.919618e-6,"MEAN_MOTION_DOT":-2.41e-6,"MEAN_MOTION_DDOT":0},{"OBJECT_NAME":"STARLINK-3641","OBJECT_ID":"2022-017W","EPOCH":"2026-03-10T04:12:53.633664","MEAN_MOTION":15.0882319,"ECCENTRICITY":0.00019067,"INCLINATION":53.2204,"RA_OF_ASC_NODE":346.9375,"ARG_OF_PERICENTER":78.1964,"MEAN_ANOMALY":281.9242,"EPHEMERIS_TYPE":0,"CLASSIFICATION_TYPE":"U","NORAD_CAT_ID":51788,"ELEMENT_SET_NO":999,"REV_AT_EPOCH":22399,"BSTAR":0.00012110392,"MEAN_MOTION_DOT":1.639e-5,"MEAN_MOTION_DDOT":0},{"OBJECT_NAME":"STARLINK-3639","OBJECT_ID":"2022-017X","EPOCH":"2026-03-10T10:55:34.939200","MEAN_MOTION":15.08855272,"ECCENTRICITY":0.000134,"INCLINATION":53.2191,"RA_OF_ASC_NODE":345.6841,"ARG_OF_PERICENTER":103.2986,"MEAN_ANOMALY":256.8155,"EPHEMERIS_TYPE":0,"CLASSIFICATION_TYPE":"U","NORAD_CAT_ID":51789,"ELEMENT_SET_NO":999,"REV_AT_EPOCH":22239,"BSTAR":0.00012486,"MEAN_MOTION_DOT":1.701e-5,"MEAN_MOTION_DDOT":0},{"OBJECT_NAME":"STARLINK-3631","OBJECT_ID":"2022-017Y","EPOCH":"2026-03-10T04:07:34.917888","MEAN_MOTION":15.08804793,"ECCENTRICITY":0.00016349,"INCLINATION":53.2207,"RA_OF_ASC_NODE":346.9515,"ARG_OF_PERICENTER":101.6139,"MEAN_ANOMALY":258.5037,"EPHEMERIS_TYPE":0,"CLASSIFICATION_TYPE":"U","NORAD_CAT_ID":51790,"ELEMENT_SET_NO":999,"REV_AT_EPOCH":22404,"BSTAR":0.00052581059,"MEAN_MOTION_DOT":8.082e-5,"MEAN_MOTION_DDOT":0},{"OBJECT_NAME":"STARLINK-3602","OBJECT_ID":"2022-017Z","EPOCH":"2026-03-10T04:23:27.745728","MEAN_MOTION":15.08845753,"ECCENTRICITY":0.00014533,"INCLINATION":53.2186,"RA_OF_ASC_NODE":346.9052,"ARG_OF_PERICENTER":106.9779,"MEAN_ANOMALY":253.1372,"EPHEMERIS_TYPE":0,"CLASSIFICATION_TYPE":"U","NORAD_CAT_ID":51791,"ELEMENT_SET_NO":999,"REV_AT_EPOCH":22399,"BSTAR":-0.00037304762,"MEAN_MOTION_DOT":-6.221e-5,"MEAN_MOTION_DDOT":0},{"OBJECT_NAME":"STARLINK-3626","OBJECT_ID":"2022-017AA","EPOCH":"2026-03-10T00:46:12.794592","MEAN_MOTION":15.08840173,"ECCENTRICITY":0.00016497,"INCLINATION":53.2211,"RA_OF_ASC_NODE":347.5839,"ARG_OF_PERICENTER":66.561,"MEAN_ANOMALY":293.5555,"EPHEMERIS_TYPE":0,"CLASSIFICATION_TYPE":"U","NORAD_CAT_ID":51792,"ELEMENT_SET_NO":999,"REV_AT_EPOCH":22402,"BSTAR":-4.2645315e-5,"MEAN_MOTION_DOT":-9.67e-6,"MEAN_MOTION_DDOT":0},{"OBJECT_NAME":"STARLINK-3633","OBJECT_ID":"2022-017AB","EPOCH":"2026-03-10T12:00:01.999296","MEAN_MOTION":15.40245301,"ECCENTRICITY":0.0001358,"INCLINATION":53.2187,"RA_OF_ASC_NODE":339.8344,"ARG_OF_PERICENTER":52.4586,"MEAN_ANOMALY":289.1056,"EPHEMERIS_TYPE":0,"CLASSIFICATION_TYPE":"U","NORAD_CAT_ID":51793,"ELEMENT_SET_NO":999,"REV_AT_EPOCH":581,"BSTAR":0.012142,"MEAN_MOTION_DOT":0.00531484,"MEAN_MOTION_DDOT":0},{"OBJECT_NAME":"STARLINK-3573","OBJECT_ID":"2022-017AC","EPOCH":"2026-03-10T02:10:59.673216","MEAN_MOTION":15.08843881,"ECCENTRICITY":0.00012164,"INCLINATION":53.2194,"RA_OF_ASC_NODE":347.3258,"ARG_OF_PERICENTER":86.6384,"MEAN_ANOMALY":273.4747,"EPHEMERIS_TYPE":0,"CLASSIFICATION_TYPE":"U","NORAD_CAT_ID":51794,"ELEMENT_SET_NO":999,"REV_AT_EPOCH":22398,"BSTAR":2.1246761e-5,"MEAN_MOTION_DOT":5.0e-7,"MEAN_MOTION_DDOT":0}]
